GLOBALSTAR M057         
1 25943U 99058A   25355.88958604 -.00000090  00000+0  25175-4 0  9995
2 25943  51.9953 175.5015 0003326  55.2238 304.8925 12.24832257189937
GLOBALSTAR M059         
1 25944U 99058B   25356.49681605 -.00000077  00000+0  11776-3 0  9994
2 25944  52.0037  57.7294 0000312 118.3450 254.9616 11.99988126596653
GLOBALSTAR M056         
1 25945U 99058C   25356.49302032 -.00000091  00000+0 -41795-4 0  9991
2 25945  51.9981  54.8724 0001232 179.3211 194.0273 12.04781001185321
GLOBALSTAR M031         
1 25946U 99058D   25351.65166691 -.00000043  00000+0  48267-3 0  9990
2 25946  51.9983 309.4344 0000939 181.2254 351.7896 12.16044933186865
GLOBALSTAR M039         
1 25961U 99062A   25356.45460452 -.00000090  00000+0  78313-4 0  9995
2 25961  51.9860  55.2831 0002706  56.4046 303.7078 12.62339639203993
GLOBALSTAR M034         
1 25962U 99062B   25356.85557389 -.00000058  00000+0  36711-3 0  9995
2 25962  51.9860 240.9577 0015185  39.7996  39.4656 11.79454197160651
GLOBALSTAR M029         
1 25963U 99062C   25356.18569931 -.00000039  00000+0  58847-3 0  9991
2 25963  51.9824 306.4467 0002560 113.6718 259.3741 11.99904693191694
GLOBALSTAR M061         
1 25964U 99062D   25356.50863274 -.00000090  00000+0 -15224-3 0  9995
2 25964  51.9808  68.3917 0005263 319.3627  53.6322 11.76777800143351
